{"type": "FeatureCollection", "features": [ {"type": "Feature", "properties": {"norad_id": 30742, "name": "FENGYUN 1C DEB", "group": "fengyun-1c-debris", "lat": -19.481278882722734, "lon": 22.92360043132496, "alt_km": 855.1302549204447, "timestamp": "2025-12-01T03:58:50.092793+00:00", "meta": {"OBJECT_NAME": "FENGYUN 1C DEB", "OBJECT_ID": "1999-025ATC", "EPOCH": "2025-11-30T02:39:25.259328", "MEAN_MOTION": 14.10265587, "ECCENTRICITY": 0.00704104, "INCLINATION": 98.8695, "RA_OF_ASC_NODE": 18.7166, "ARG_OF_PERICENTER": 262.4109, "MEAN_ANOMALY": 123.2019, "EPHEMERIS_TYPE": 0, "CLASSIFICATION_TYPE": "U", "NORAD_CAT_ID": 30742, "ELEMENT_SET_NO": 999, "REV_AT_EPOCH": 95864, "BSTAR": 0.0016867953, "MEAN_MOTION_DOT": 3.016e-05, "MEAN_MOTION_DDOT": 0, "GROUP": "fengyun-1c-debris"}, "tle": {"line1": "1 30742U 99025ATC 25334.11070902  .00003016  00000+0  16868-2 0  9998", "line2": "2 30742  98.8695  18.7166 0070410 262.4109 123.2019 14.10265587958647"}}, "geometry": {"type": "Point", "coordinates": [22.92360043132496, -19.481278882722734]}}, {"type": "Feature", "properties": {"norad_id": 30744, "name": "FENGYUN 1C DEB", "group": "fengyun-1c-debris", "lat": 80.6373666008279, "lon": 51.33689800594521, "alt_km": 603.0391563835428, "timestamp": "2025-12-01T03:58:50.092804+00:00", "meta": {"OBJECT_NAME": "FENGYUN 1C DEB", "OBJECT_ID": "1999-025ATE", "EPOCH": "2025-11-29T21:29:22.565184", "MEAN_MOTION": 14.87741033, "ECCENTRICITY": 0.00096719, "INCLINATION": 98.731, "RA_OF_ASC_NODE": 118.7002, "ARG_OF_PERICENTER": 300.3915, "MEAN_ANOMALY": 185.5753, "EPHEMERIS_TYPE": 0, "CLASSIFICATION_TYPE": "U", "NORAD_CAT_ID": 30744, "ELEMENT_SET_NO": 999, "REV_AT_EPOCH": 97897, "BSTAR": 0.0052975061, "MEAN_MOTION_DOT": 0.00048614, "MEAN_MOTION_DDOT": 0, "GROUP": "fengyun-1c-debris"}, "tle": {"line1": "1 30744U 99025ATE 25333.89540006  .00048614  00000+0  52975-2 0  9993", "line2": "2 30744  98.7310 118.7002 0009671 300.3915 185.5753 14.87741033978973"}}, "geometry": {"type": "Point", "coordinates": [51.33689800594521, 80.6373666008279]}}, {"type": "Feature", "properties": {"norad_id": 30746, "name": "FENGYUN 1C DEB", "group": "fengyun-1c-debris", "lat": -39.37186994411112, "lon": 162.86186435878946, "alt_km": 778.1703257910658, "timestamp": "2025-12-01T03:58:50.092814+00:00", "meta": {"OBJECT_NAME": "FENGYUN 1C DEB", "OBJECT_ID": "1999-025ATG", "EPOCH": "2025-11-30T18:09:18.868896", "MEAN_MOTION": 14.27471665, "ECCENTRICITY": 0.0046504, "INCLINATION": 99.0577, "RA_OF_ASC_NODE": 154.9163, "ARG_OF_PERICENTER": 353.0112, "MEAN_ANOMALY": 24.7672, "EPHEMERIS_TYPE": 0, "CLASSIFICATION_TYPE": "U", "NORAD_CAT_ID": 30746, "ELEMENT_SET_NO": 999, "REV_AT_EPOCH": 97275, "BSTAR": 0.00045539, "MEAN_MOTION_DOT": 1.083e-05, "MEAN_MOTION_DDOT": 0, "GROUP": "fengyun-1c-debris"}, "tle": {"line1": "1 30746U 99025ATG 25334.75646839  .00001083  00000+0  45539-3 0  9990", "line2": "2 30746  99.0577 154.9163 0046504 353.0112  24.7672 14.27471665972753"}}, "geometry": {"type": "Point", "coordinates": [162.86186435878946, -39.37186994411112]}}, {"type": "Feature", "properties": {"norad_id": 30749, "name": "FENGYUN 1C DEB", "group": "fengyun-1c-debris", "lat": 28.931393261637293, "lon": -2.6582512239616016, "alt_km": 915.3053987231378, "timestamp": "2025-12-01T03:58:50.092825+00:00", "meta": {"OBJECT_NAME": "FENGYUN 1C DEB", "OBJECT_ID": "1999-025ATK", "EPOCH": "2025-11-30T00:23:36.377664", "MEAN_MOTION": 13.99828231, "ECCENTRICITY": 0.00547346, "INCLINATION": 98.8886, "RA_OF_ASC_NODE": 1.1876, "ARG_OF_PERICENTER": 268.1629, "MEAN_ANOMALY": 91.3267, "EPHEMERIS_TYPE": 0, "CLASSIFICATION_TYPE": "U", "NORAD_CAT_ID": 30749, "ELEMENT_SET_NO": 999, "REV_AT_EPOCH": 95788, "BSTAR": 0.0002865825, "MEAN_MOTION_DOT": 3.82e-06, "MEAN_MOTION_DDOT": 0, "GROUP": "fengyun-1c-debris"}, "tle": {"line1": "1 30749U 99025ATK 25334.01639326  .00000382  00000+0  28658-3 0  9999", "line2": "2 30749  98.8886   1.1876 0054734 268.1629  91.3267 13.99828231957883"}}, "geometry": {"type": "Point", "coordinates": [-2.6582512239616016, 28.931393261637293]}}, {"type": "Feature", "properties": {"norad_id": 30750, "name": "FENGYUN 1C DEB", "group": "fengyun-1c-debris", "lat": -3.322999380631508, "lon": -131.06407106873857, "alt_km": 781.1373737663152, "timestamp": "2025-12-01T03:58:50.092836+00:00", "meta": {"OBJECT_NAME": "FENGYUN 1C DEB", "OBJECT_ID": "1999-025ATL", "EPOCH": "2025-11-30T03:43:47.153568", "MEAN_MOTION": 14.28426318, "ECCENTRICITY": 0.00417677, "INCLINATION": 98.9198, "RA_OF_ASC_NODE": 48.4261, "ARG_OF_PERICENTER": 135.7407, "MEAN_ANOMALY": 253.9735, "EPHEMERIS_TYPE": 0, "CLASSIFICATION_TYPE": "U", "NORAD_CAT_ID": 30750, "ELEMENT_SET_NO": 999, "REV_AT_EPOCH": 96602, "BSTAR": 0.0021169764, "MEAN_MOTION_DOT": 5.303e-05, "MEAN_MOTION_DDOT": 0, "GROUP": "fengyun-1c-debris"}, "tle": {"line1": "1 30750U 99025ATL 25334.15540687  .00005303  00000+0  21170-2 0  9996", "line2": "2 30750  98.9198  48.4261 0041767 135.7407 253.9735 14.28426318966024"}}, "geometry": {"type": "Point", "coordinates": [-131.06407106873857, -3.322999380631508]}}, {"type": "Feature", "properties": {"norad_id": 30751, "name": "FENGYUN 1C DEB", "group": "fengyun-1c-debris", "lat": 66.56861254851428, "lon": -124.46048507792266, "alt_km": 798.551942405421, "timestamp": "2025-12-01T03:58:50.092847+00:00", "meta": {"OBJECT_NAME": "FENGYUN 1C DEB", "OBJECT_ID": "1999-025ATM", "EPOCH": "2025-11-30T17:50:25.583424", "MEAN_MOTION": 14.1509978, "ECCENTRICITY": 0.0053439, "INCLINATION": 98.8565, "RA_OF_ASC_NODE": 34.0346, "ARG_OF_PERICENTER": 130.1129, "MEAN_ANOMALY": 350.61, "EPHEMERIS_TYPE": 0, "CLASSIFICATION_TYPE": "U", "NORAD_CAT_ID": 30751, "ELEMENT_SET_NO": 999, "REV_AT_EPOCH": 96106, "BSTAR": 0.0013831, "MEAN_MOTION_DOT": 2.676e-05, "MEAN_MOTION_DDOT": 0, "GROUP": "fengyun-1c-debris"}, "tle": {"line1": "1 30751U 99025ATM 25334.74335166  .00002676  00000+0  13831-2 0  9991", "line2": "2 30751  98.8565  34.0346 0053439 130.1129 350.6100 14.15099780961061"}}, "geometry": {"type": "Point", "coordinates": [-124.46048507792266, 66.56861254851428]}}, {"type": "Feature", "properties": {"norad_id": 30753, "name": "FENGYUN 1C DEB", "group": "fengyun-1c-debris", "lat": 18.256404524705285, "lon": 11.020420354913758, "alt_km": 810.9436438911853, "timestamp": "2025-12-01T03:58:50.092857+00:00", "meta": {"OBJECT_NAME": "FENGYUN 1C DEB", "OBJECT_ID": "1999-025ATP", "EPOCH": "2025-11-30T09:11:41.212032", "MEAN_MOTION": 14.1258284, "ECCENTRICITY": 0.0055965, "INCLINATION": 98.8083, "RA_OF_ASC_NODE": 13.1828, "ARG_OF_PERICENTER": 30.8182, "MEAN_ANOMALY": 329.6256, "EPHEMERIS_TYPE": 0, "CLASSIFICATION_TYPE": "U", "NORAD_CAT_ID": 30753, "ELEMENT_SET_NO": 999, "REV_AT_EPOCH": 96177, "BSTAR": 0.00086745822, "MEAN_MOTION_DOT": 1.586e-05, "MEAN_MOTION_DDOT": 0, "GROUP": "fengyun-1c-debris"}, "tle": {"line1": "1 30753U 99025ATP 25334.38311588  .00001586  00000+0  86746-3 0  9990", "line2": "2 30753  98.8083  13.1828 0055965  30.8182 329.6256 14.12582840961779"}}, "geometry": {"type": "Point", "coordinates": [11.020420354913758, 18.256404524705285]}}, {"type": "Feature", "properties": {"norad_id": 30755, "name": "FENGYUN 1C DEB", "group": "fengyun-1c-debris", "lat": -54.631029716185026, "lon": 138.24165640214244, "alt_km": 709.7927156283113, "timestamp": "2025-12-01T03:58:50.092868+00:00", "meta": {"OBJECT_NAME": "FENGYUN 1C DEB", "OBJECT_ID": "1999-025ATR", "EPOCH": "2025-11-30T17:44:20.990976", "MEAN_MOTION": 14.44844589, "ECCENTRICITY": 0.0151412, "INCLINATION": 98.2586, "RA_OF_ASC_NODE": 329.6333, "ARG_OF_PERICENTER": 305.8888, "MEAN_ANOMALY": 232.8465, "EPHEMERIS_TYPE": 0, "CLASSIFICATION_TYPE": "U", "NORAD_CAT_ID": 30755, "ELEMENT_SET_NO": 999, "REV_AT_EPOCH": 98271, "BSTAR": 0.00078059, "MEAN_MOTION_DOT": 3.076e-05, "MEAN_MOTION_DDOT": 0, "GROUP": "fengyun-1c-debris"}, "tle": {"line1": "1 30755U 99025ATR 25334.73913184  .00003076  00000+0  78059-3 0  9995", "line2": "2 30755  98.2586 329.6333 0151412 305.8888 232.8465 14.44844589982711"}}, "geometry": {"type": "Point", "coordinates": [138.24165640214244, -54.631029716185026]}}, {"type": "Feature", "properties": {"norad_id": 30756, "name": "FENGYUN 1C DEB", "group": "fengyun-1c-debris", "lat": -56.717257578671536, "lon": -151.53637379690142, "alt_km": 857.6935262766629, "timestamp": "2025-12-01T03:58:50.092878+00:00", "meta": {"OBJECT_NAME": "FENGYUN 1C DEB", "OBJECT_ID": "1999-025ATS", "EPOCH": "2025-11-30T15:43:54.315264", "MEAN_MOTION": 14.18170291, "ECCENTRICITY": 0.00708, "INCLINATION": 98.9924, "RA_OF_ASC_NODE": 41.9054, "ARG_OF_PERICENTER": 351.5841, "MEAN_ANOMALY": 162.7333, "EPHEMERIS_TYPE": 0, "CLASSIFICATION_TYPE": "U", "NORAD_CAT_ID": 30756, "ELEMENT_SET_NO": 999, "REV_AT_EPOCH": 96233, "BSTAR": 0.0013019, "MEAN_MOTION_DOT": 2.696e-05, "MEAN_MOTION_DDOT": 0, "GROUP": "fengyun-1c-debris"}, "tle": {"line1": "1 30756U 99025ATS 25334.65548976  .00002696  00000+0  13019-2 0  9991", "line2": "2 30756  98.9924  41.9054 0070800 351.5841 162.7333 14.18170291962331"}}, "geometry": {"type": "Point", "coordinates": [-151.53637379690142, -56.717257578671536]}}]}